NORAD_CAT_ID,OBJECT_NAME,OBJECT_TYPE,EPOCH,MEAN_MOTION,ECCENTRICITY,INCLINATION,RA_OF_ASC_NODE,ARG_OF_PERICENTER,MEAN_ANOMALY,BSTAR,MEAN_MOTION_DOT,MEAN_MOTION_DDOT,TLE_LINE0,TLE_LINE1,TLE_LINE2,SEMIMAJOR_AXIS,PERIOD,APOGEE,PERIGEE,DECAYED
54003.0,STARLINK-5114,PAYLOAD,2023-06-14 23:26:32,15.08841076,8.64e-05,53.218,17.3147,82.1629,277.9462,0.00010654,1.408e-05,0.0,0 STARLINK-5114,1 54003U 22125AR  23165.97676317  .00001408  00000-0  10654-3 0  9999,2 54003  53.2180  17.3147 0000864  82.1629 277.9462 15.08841076 38741,6917.877,95.437,540.34,539.144,0.0
54003.0,STARLINK-5114,PAYLOAD,2023-06-15 13:45:00,15.08843409,8.97e-05,53.2172,14.6386,93.6565,266.453,4.0908e-05,3.63e-06,0.0,0 STARLINK-5114,1 54003U 22125AR  23166.57292462  .00000363  00000-0  40908-4 0  9996,2 54003  53.2172  14.6386 0000897  93.6565 266.4530 15.08843409 38784,6917.87,95.437,540.356,539.114,0.0
54003.0,STARLINK-5114,PAYLOAD,2023-06-16 07:14:14,15.08850032,8.69e-05,53.2166,11.367,95.321,264.7881,0.00017946,2.57e-05,0.0,0 STARLINK-5114,1 54003U 22125AR  23167.30155861  .00002570  00000-0  17946-3 0  9996,2 54003  53.2166  11.3670 0000869  95.3210 264.7881 15.08850032 38940,6917.85,95.437,540.316,539.114,0.0
54003.0,STARLINK-5114,PAYLOAD,2023-06-16 13:35:47,15.08846161,9.07e-05,53.2172,10.1768,99.0653,261.0441,0.00021722,3.172e-05,0.0,0 STARLINK-5114,1 54003U 22125AR  23167.56652041  .00003172  00000-0  21722-3 0  9992,2 54003  53.2172  10.1768 0000907  99.0653 261.0441 15.08846161 38936,6917.862,95.437,540.354,539.099,0.0
54003.0,STARLINK-5114,PAYLOAD,2023-06-16 19:57:19,15.08854553,9.99e-05,53.2167,8.9874,102.1245,257.9859,0.00031345,4.706e-05,0.0,0 STARLINK-5114,1 54003U 22125AR  23167.83147471  .00004706  00000-0  31345-3 0  9994,2 54003  53.2167   8.9874 0000999 102.1245 257.9859 15.08854553 38972,6917.836,95.437,540.392,539.01,0.0
54003.0,STARLINK-5114,PAYLOAD,2023-06-16 23:08:05,15.08856617,9.48e-05,53.2169,8.3928,95.8695,264.2405,0.00027059,4.023e-05,0.0,0 STARLINK-5114,1 54003U 22125AR  23167.96395253  .00004023  00000-0  27059-3 0  9990,2 54003  53.2169   8.3928 0000948  95.8695 264.2405 15.08856617 38992,6917.83,95.437,540.35,539.039,0.0
54003.0,STARLINK-5114,PAYLOAD,2023-06-17 16:37:21,15.08832591,6.9e-05,53.2169,5.1219,101.5347,258.5723,-8.4526e-05,-1.632e-05,0.0,0 STARLINK-5114,1 54003U 22125AR  23168.69260753 -.00001632  00000-0 -84526-4 0  9995,2 54003  53.2169   5.1219 0000690 101.5347 258.5723 15.08832591 39156,6917.903,95.438,540.245,539.291,0.0
54003.0,STARLINK-5114,PAYLOAD,2023-06-17 19:48:07,15.08830297,9.54e-05,53.2169,4.5272,74.2178,285.8919,-0.00010946,-2.029e-05,0.0,0 STARLINK-5114,1 54003U 22125AR  23168.82509084 -.00002029  00000-0 -10946-3 0  9998,2 54003  53.2169   4.5272 0000954  74.2178 285.8919 15.08830297 39127,6917.91,95.438,540.435,539.115,0.0
54003.0,STARLINK-5114,PAYLOAD,2023-06-17 22:58:54,15.08825543,9.15e-05,53.217,3.9329,70.787,289.3221,-0.00016939,-2.981e-05,0.0,0 STARLINK-5114,1 54003U 22125AR  23168.95757420 -.00002981  00000-0 -16939-3 0  9996,2 54003  53.2170   3.9329 0000915  70.7870 289.3221 15.08825543 39192,6917.925,95.438,540.423,539.157,0.0
54003.0,STARLINK-5114,PAYLOAD,2023-06-18 19:38:54,15.08842474,8.72e-05,53.2172,0.0677,67.1569,292.9515,0.00013841,1.916e-05,0.0,0 STARLINK-5114,1 54003U 22125AR  23169.81869009  .00001916  00000-0  13841-3 0  9993,2 54003  53.2172   0.0677 0000872  67.1569 292.9515 15.08842474 39328,6917.873,95.437,540.341,539.135,0.0
54003.0,STARLINK-5114,PAYLOAD,2023-06-19 08:22:00,15.08843864,9.31e-05,53.217,357.689,55.052,305.0559,0.0004752,7.284e-05,0.0,0 STARLINK-5114,1 54003U 22125AR  23170.34861396  .00007284  00000-0  47520-3 0  9999,2 54003  53.2170 357.6890 0000931  55.0520 305.0559 15.08843864 39354,6917.869,95.437,540.378,539.09,0.0
54003.0,STARLINK-5114,PAYLOAD,2023-06-19 19:29:41,15.08860344,9.32e-05,53.217,355.6074,53.5529,306.5549,0.00061608,9.536e-05,0.0,0 STARLINK-5114,1 54003U 22125AR  23170.81228755  .00009536  00000-0  61608-3 0  9992,2 54003  53.2170 355.6074 0000932  53.5529 306.5549 15.08860344 39424,6917.818,95.436,540.328,539.038,0.0
54003.0,STARLINK-5114,PAYLOAD,2023-06-19 22:40:27,15.08867763,9.49e-05,53.217,355.0123,53.4512,306.6568,0.00070836,0.00011012,0.0,0 STARLINK-5114,1 54003U 22125AR  23170.94476425  .00011012  00000-0  70836-3 0  9990,2 54003  53.2170 355.0123 0000949  53.4512 306.6568 15.08867763 39493,6917.796,95.436,540.317,539.004,0.0
54003.0,STARLINK-5114,PAYLOAD,2023-06-20 06:37:23,15.08854723,9.08e-05,53.2166,353.526,75.2113,284.898,0.00029637,4.434e-05,0.0,0 STARLINK-5114,1 54003U 22125AR  23171.27596462  .00004434  00000-0  29637-3 0  9994,2 54003  53.2166 353.5260 0000908  75.2113 284.8980 15.08854723 39540,6917.835,95.437,540.329,539.072,0.0
54003.0,STARLINK-5114,PAYLOAD,2023-06-20 17:45:05,15.0884339,8.22e-05,53.2168,351.4438,73.6098,286.4985,-4.2184e-05,-9.59e-06,0.0,0 STARLINK-5114,1 54003U 22125AR  23171.73964620 -.00000959  00000-0 -42184-4 0  9993,2 54003  53.2168 351.4438 0000822  73.6098 286.4985 15.08843390 39614,6917.87,95.437,540.304,539.166,0.0
54003.0,STARLINK-5114,PAYLOAD,2023-06-20 19:20:28,15.08848886,8.11e-05,53.217,351.1472,67.0979,293.0099,0.00011335,1.517e-05,0.0,0 STARLINK-5114,1 54003U 22125AR  23171.80588561  .00001517  00000-0  11335-3 0  9999,2 54003  53.2170 351.1472 0000811  67.0979 293.0099 15.08848886 39575,6917.853,95.437,540.279,539.157,0.0
54003.0,STARLINK-5114,PAYLOAD,2023-06-21 19:11:15,15.08842138,8.35e-05,53.2169,346.6864,72.4672,287.6412,0.00015358,2.158e-05,0.0,0 STARLINK-5114,1 54003U 22125AR  23172.79948884  .00002158  00000-0  15358-3 0  9997,2 54003  53.2169 346.6864 0000835  72.4672 287.6412 15.08842138 39777,6917.874,95.437,540.316,539.161,0.0
54003.0,STARLINK-5114,PAYLOAD,2023-06-23 04:34:21,15.0884473,7.07e-05,53.2167,340.4432,89.5626,270.5447,0.00026297,3.9e-05,0.0,0 STARLINK-5114,1 54003U 22125AR  23174.19053014  .00003900  00000-0  26297-3 0  9995,2 54003  53.2167 340.4432 0000707  89.5626 270.5447 15.08844730 39986,6917.866,95.437,540.22,539.242,0.0
54003.0,STARLINK-5114,PAYLOAD,2023-06-24 04:25:08,15.0884445,7.34e-05,53.2167,335.9821,86.7413,273.3663,0.00017165,2.446e-05,0.0,0 STARLINK-5114,1 54003U 22125AR  23175.18413038  .00002446  00000-0  17165-3 0  9999,2 54003  53.2167 335.9821 0000734  86.7413 273.3663 15.08844450 40139,6917.867,95.437,540.24,539.224,0.0
54003.0,STARLINK-5114,PAYLOAD,2023-06-25 16:59:01,15.08841675,8.9e-05,53.2172,329.1408,99.9063,260.203,6.5919e-05,7.62e-06,0.0,0 STARLINK-5114,1 54003U 22125AR  23176.70765299  .00000762  00000-0  65919-4 0  9997,2 54003  53.2172 329.1408 0000890  99.9063 260.2030 15.08841675 40365,6917.875,95.437,540.356,539.125,0.0
54003.0,STARLINK-5114,PAYLOAD,2023-06-26 10:28:16,15.08832307,0.0001281,53.217,325.8696,95.6412,264.4727,2.6493e-05,1.34e-06,0.0,0 STARLINK-5114,1 54003U 22125AR  23177.43629944  .00000134  00000-0  26493-4 0  9991,2 54003  53.2170 325.8696 0001281  95.6412 264.4727 15.08832307 40474,6917.904,95.438,540.655,538.883,0.0
54003.0,STARLINK-5114,PAYLOAD,2023-06-27 02:22:07,15.08843266,8.68e-05,53.2174,322.8995,100.7176,259.3914,0.00018231,2.615e-05,0.0,0 STARLINK-5114,1 54003U 22125AR  23178.09869539  .00002615  00000-0  18231-3 0  9996,2 54003  53.2174 322.8995 0000868 100.7176 259.3914 15.08843266 40570,6917.87,95.437,540.336,539.135,0.0
54003.0,STARLINK-5114,PAYLOAD,2023-06-28 02:12:54,15.08840185,8.83e-05,53.2167,318.4397,105.3463,254.7627,8.7509e-05,1.105e-05,0.0,0 STARLINK-5114,1 54003U 22125AR  23179.09229718  .00001105  00000-0  87509-4 0  9994,2 54003  53.2167 318.4397 0000883 105.3463 254.7627 15.08840185 40720,6917.88,95.438,540.356,539.134,0.0
54003.0,STARLINK-5114,PAYLOAD,2023-06-29 08:25:14,15.08840722,0.0001231,53.2157,312.7895,90.7118,269.4015,0.00012586,1.716e-05,0.0,0 STARLINK-5114,1 54003U 22125AR  23180.35085953  .00001716  00000-0  12586-3 0  9996,2 54003  53.2157 312.7895 0001231  90.7118 269.4015 15.08840722 40913,6917.878,95.438,540.595,538.892,0.0
54003.0,STARLINK-5114,PAYLOAD,2023-07-01 17:39:07,15.08841632,8.14e-05,53.2175,302.0826,87.8745,272.234,0.00016477,2.336e-05,0.0,0 STARLINK-5114,1 54003U 22125AR  23182.73549909  .00002336  00000-0  16477-3 0  9998,2 54003  53.2175 302.0826 0000814  87.8745 272.2340 15.08841632 41272,6917.875,95.437,540.304,539.177,0.0
54003.0,STARLINK-5114,PAYLOAD,2023-07-02 11:08:22,15.08836902,8.63e-05,53.2173,298.8114,88.7343,271.3748,8.3505e-05,1.041e-05,0.0,0 STARLINK-5114,1 54003U 22125AR  23183.46414363  .00001041  00000-0  83505-4 0  9993,2 54003  53.2173 298.8114 0000863  88.7343 271.3748 15.08836902 41388,6917.89,95.438,540.352,539.158,0.0
54003.0,STARLINK-5114,PAYLOAD,2023-07-02 14:19:07,15.0885513,9.36e-05,53.2176,298.2155,89.3001,270.8099,-9.3199e-05,-1.771e-05,0.0,0 STARLINK-5114,1 54003U 22125AR  23183.59661413 -.00001771  00000-0 -93199-4 0  9999,2 54003  53.2176 298.2155 0000936  89.3001 270.8099 15.08855130 41409,6917.834,95.437,540.347,539.052,0.0
54003.0,STARLINK-5114,PAYLOAD,2023-07-02 17:29:54,15.08845784,8.01e-05,53.2178,297.6207,104.3373,255.7708,5.3174e-05,5.59e-06,0.0,0 STARLINK-5114,1 54003U 22125AR  23183.72909803  .00000559  00000-0  53174-4 0  9992,2 54003  53.2178 297.6207 0000801 104.3373 255.7708 15.08845784 41428,6917.863,95.437,540.282,539.174,0.0
54003.0,STARLINK-5114,PAYLOAD,2023-07-03 23:42:13,15.08841357,8.23e-05,53.2173,291.9722,82.4468,277.6617,-2.2413e-05,-6.44e-06,0.0,0 STARLINK-5114,1 54003U 22125AR  23184.98766106 -.00000644  00000-0 -22413-4 0  9997,2 54003  53.2173 291.9722 0000823  82.4468 277.6617 15.08841357 41612,6917.876,95.437,540.311,539.172,0.0
54003.0,STARLINK-5114,PAYLOAD,2023-07-04 12:25:19,15.08834676,8.78e-05,53.2168,289.5946,85.5503,274.559,5.7035e-06,-1.97e-06,0.0,0 STARLINK-5114,1 54003U 22125AR  23185.51758625 -.00000197  00000-0  57035-5 0  9995,2 54003  53.2168 289.5946 0000878  85.5503 274.5590 15.08834676 41691,6917.897,95.438,540.369,539.154,0.0
